OBJECT_NAME,OBJECT_ID,EPOCH,MEAN_MOTION,ECCENTRICITY,INCLINATION,RA_OF_ASC_NODE,ARG_OF_PERICENTER,MEAN_ANOMALY,EPHEMERIS_TYPE,CLASSIFICATION_TYPE,NORAD_CAT_ID,ELEMENT_SET_NO,REV_AT_EPOCH,BSTAR,MEAN_MOTION_DOT,MEAN_MOTION_DDOT
TRITON-1,2013-066M,2026-06-09T15:56:54.482208,14.81680726,.00883139,97.8248,70.6422,258.8540,100.2734,0,U,39427,999,67297,.21918151E-3,.1787E-4,0
GOMX-1,2013-066Q,2026-06-09T15:03:37.461888,14.69431873,.01301463,97.6494,1.5673,101.5421,260.0431,0,U,39430,999,66880,.28490118E-3,.1871E-4,0
CUBEBUG-2 (LO-74),2013-066AA,2026-06-09T10:14:19.891968,14.93700353,.00591524,97.8902,109.3723,54.2261,306.4438,0,U,39440,999,67583,.31221753E-3,.3357E-4,0
NEE-02 KRYSAOR,2013-066AB,2026-06-09T08:01:04.988064,14.86584933,.00677366,97.8886,99.6051,95.3375,265.5574,0,U,39441,999,67503,.203569E-3,.1823E-4,0
FUNCUBE-1 (AO-73),2013-066AE,2026-06-09T10:23:34.623168,15.09396559,.00348582,97.8268,131.7174,227.8994,131.9269,0,U,39444,999,67849,.30668814E-3,.4901E-4,0
UWE-3,2013-066AG,2026-06-09T03:04:03.741312,14.96959057,.00487694,97.8686,116.1479,348.2293,11.7784,0,U,39446,999,67637,.30256314E-3,.3499E-4,0
SMDC ONE 2.4,2013-072H,2026-06-09T07:10:25.876704,15.18033237,.01441857,120.4934,321.6312,10.6177,349.7893,0,U,39469,999,11663,.30299748E-3,.7746E-4,0
COSMOS 2488 (RODNIK-S 7),2013-076A,2026-06-09T15:10:22.283904,12.42905444,.0020748,82.4835,173.4022,110.8572,249.4732,0,U,39483,999,56495,.74415574E-4,.2E-6,0
COSMOS 2489 (RODNIK-S 8),2013-076B,2026-06-09T14:34:25.805568,12.42879363,.00225928,82.4872,174.7941,110.9577,249.3923,0,U,39484,999,56500,.89684445E-4,.22E-6,0
COSMOS 2490 (RODNIK-S 9),2013-076C,2026-06-09T13:53:56.030208,12.42877752,.00225652,82.4817,172.8823,125.9699,234.3477,0,U,39485,999,56493,.67546047E-4,.19E-6,0
KAZEOSAT 1,2014-024A,2026-06-09T14:20:26.727648,14.42077703,.0001469,98.3202,233.2335,74.9737,285.1615,0,U,39731,999,63746,.91297553E-4,.257E-5,0
COSMOS 2496 (RODNIK-S 10),2014-028A,2026-06-09T14:48:42.413184,12.42878617,.00212652,82.4444,113.4723,94.4439,265.9071,0,U,39761,999,54657,.71748412E-3,.109E-5,0
COSMOS 2497 (RODNIK-S 11),2014-028B,2026-06-09T14:13:15.000672,12.42894153,.00218588,82.4492,115.1746,89.7670,270.5915,0,U,39762,999,54657,.57374819E-3,.9E-6,0
COSMOS 2498 (RODNIK-S 12),2014-028C,2026-06-09T13:41:45.201120,12.42979978,.0022546,82.4453,113.6787,89.4418,270.9245,0,U,39763,999,54660,.20167645E-3,.38E-6,0
HODOYOSHI-4,2014-033B,2026-06-09T13:41:21.729696,14.88108823,.00231503,97.5458,345.7610,334.6327,25.3752,0,U,40011,999,64767,.43129454E-4,.346E-5,0
UNISAT-6,2014-033C,2026-06-09T09:37:45.642144,14.88204191,.00464316,97.7869,313.2514,94.2161,266.4364,0,U,40012,999,64500,.26156758E-3,.2405E-4,0
DEIMOS-2,2014-033D,2026-06-09T14:43:19.864704,14.93709534,.00020303,97.5841,35.3679,59.7443,300.3978,0,U,40013,999,63659,.19596501E-3,.2019E-4,0
BUGSAT-1 (TITA),2014-033E,2026-06-09T13:48:40.671936,15.15503551,.00274507,98.0419,252.6796,204.3489,155.6447,0,U,40014,999,65468,.24597615E-3,.4625E-4,0
SAUDISAT 4,2014-033G,2026-06-09T09:49:02.113536,14.79533907,.00462298,97.7574,306.8134,98.5110,262.1345,0,U,40016,999,64492,.9515783E-4,.673E-5,0
APRIZESAT 9,2014-033J,2026-06-09T08:01:11.294400,14.74203919,.00651711,97.9050,293.7252,224.6876,134.9071,0,U,40018,999,64240,.94845279E-4,.594E-5,0
BRITE-CA1 (TORONTO),2014-033L,2026-06-09T08:38:27.660768,14.72665836,.00774217,97.9729,289.4327,302.5173,56.8569,0,U,40020,999,64106,.10078949E-3,.618E-5,0
